NORAD_CAT_ID,OBJECT_NAME,OBJECT_TYPE,EPOCH,MEAN_MOTION,ECCENTRICITY,INCLINATION,RA_OF_ASC_NODE,ARG_OF_PERICENTER,MEAN_ANOMALY,BSTAR,MEAN_MOTION_DOT,MEAN_MOTION_DDOT,TLE_LINE0,TLE_LINE1,TLE_LINE2,SEMIMAJOR_AXIS,PERIOD,APOGEE,PERIGEE,DECAYED
49751.0,STARLINK-3229,PAYLOAD,2022-03-11 14:00:01,15.088582,0.0001465,53.2376,219.1945,62.3617,319.7795,-0.0014496,-0.00023295,0.0,0 STARLINK-3229,1 49751U 21115AD  22070.58334491 -.00023295  00000-0 -14496-2 0  9993,2 49751  53.2376 219.1945 0001465  62.3617 319.7795 15.08858200  3580,6917.825,95.436,540.703,538.6759999999998,0.0
49751.0,STARLINK-3229,PAYLOAD,2022-03-11 22:00:00,15.08848242,0.0001485,53.237,217.6995,54.7988,338.9501,0.0010224,0.00016024,0.0,0 STARLINK-3229,1 49751U 21115AD  22070.91667824  .00016024  00000-0  10224-2 0  9994,2 49751  53.2370 217.6995 0001485  54.7988 338.9501 15.08848242  3594,6917.855,95.437,540.747,538.693,0.0
49751.0,STARLINK-3229,PAYLOAD,2022-03-12 14:00:01,15.08851916,0.0001355,53.2371,214.7079,58.7271,358.1632,-0.001374,-0.00022095,0.0,0 STARLINK-3229,1 49751U 21115AD  22071.58334491 -.00022095  00000-0 -13740-2 0  9992,2 49751  53.2371 214.7079 0001355  58.7271 358.1632 15.08851916 16529,6917.844,95.437,540.646,538.7719999999998,0.0
49751.0,STARLINK-3229,PAYLOAD,2022-03-12 22:00:00,15.08845112,0.0001416,53.2366,213.2128,51.0865,17.4082,0.001635,0.00025832,0.0,0 STARLINK-3229,1 49751U 21115AD  22071.91667824  .00025832  00000-0  16350-2 0  9998,2 49751  53.2366 213.2128 0001416  51.0865  17.4082 15.08845112  3605,6917.865,95.437,540.7090000000002,538.75,0.0
49751.0,STARLINK-3229,PAYLOAD,2022-03-13 06:00:00,15.0884308,0.0001357,53.2179,211.8136,61.673,18.3683,-0.00061251,-0.00010024,0.0,0 STARLINK-3229,1 49751U 21115AD  22072.25001157 -.00010024  00000-0 -61251-3 0  9997,2 49751  53.2179 211.8136 0001357  61.6730  18.3683 15.08843080 16627,6917.871,95.437,540.675,538.797,0.0
49751.0,STARLINK-3229,PAYLOAD,2022-03-13 14:00:01,15.08844941,0.0001298,53.2368,210.2211,52.9281,38.6946,-0.0012967,-0.00020868,0.0,0 STARLINK-3229,1 49751U 21115AD  22072.58334491 -.00020868  00000-0 -12967-2 0  9999,2 49751  53.2368 210.2211 0001298  52.9281  38.6946 15.08844941 16671,6917.865,95.437,540.628,538.832,0.0
49751.0,STARLINK-3229,PAYLOAD,2022-03-13 22:00:01,15.08838074,0.0001364,53.2366,208.7258,45.6082,57.6646,0.0009768,0.00015291,0.0,0 STARLINK-3229,1 49751U 21115AD  22072.91668981  .00015291  00000-0  97680-3 0  9998,2 49751  53.2366 208.7258 0001364  45.6082  57.6646 15.08838074  3601,6917.886,95.438,540.695,538.808,0.0
49751.0,STARLINK-3229,PAYLOAD,2022-03-14 06:00:00,15.08848492,0.0001261,53.2368,207.2284,53.4755,61.3547,0.0023452,0.00037242,0.0,0 STARLINK-3229,1 49751U 21115AD  22073.25001157  .00037242  00000-0  23452-2 0  9997,2 49751  53.2368 207.2284 0001261  53.4755  61.3547 15.08848492 16775,6917.854,95.437,540.592,538.847,0.0
49751.0,STARLINK-3229,PAYLOAD,2022-03-14 14:00:01,15.08872989,0.0001484,53.237,205.734,51.3989,75.1241,-0.00089278,-0.00014481,0.0,0 STARLINK-3229,1 49751U 21115AD  22073.58335648 -.00014481  00000-0 -89278-3 0  9999,2 49751  53.2370 205.7340 0001484  51.3989  75.1241 15.08872989  3584,6917.78,95.435,540.6709999999998,538.618,0.0
49751.0,STARLINK-3229,PAYLOAD,2022-03-14 20:00:01,15.08862252,0.0001594,53.2372,204.613,46.4456,358.7355,0.001559,0.00024625,0.0,0 STARLINK-3229,1 49751U 21115AD  22073.83334491  .00024625  00000-0  15590-2 0  9996,2 49751  53.2372 204.6130 0001594  46.4456 358.7355 15.08862252 16860,6917.812,95.436,540.78,538.575,0.0
49751.0,STARLINK-3229,PAYLOAD,2022-03-14 22:00:00,15.08881142,0.0001579,53.2371,204.2386,48.2072,89.8646,-0.0023892,-0.00038153,0.0,0 STARLINK-3229,1 49751U 21115AD  22073.91667824 -.00038153  00000-0 -23892-2 0  9991,2 49751  53.2371 204.2386 0001579  48.2072  89.8646 15.08881142 16870,6917.755,95.435,540.712,538.5269999999998,0.0
49751.0,STARLINK-3229,PAYLOAD,2022-03-15 02:00:01,15.08877506,0.0001493,53.2375,203.4898,52.2404,271.6485,-0.0043557,-0.00069015,0.0,0 STARLINK-3229,1 49751U 21115AD  22074.08334491 -.00069015  00000-0 -43557-2 0  9992,2 49751  53.2375 203.4898 0001493  52.2404 271.6485 15.08877506 16907,6917.766,95.435,540.664,538.5980000000002,0.0
49751.0,STARLINK-3229,PAYLOAD,2022-03-15 22:00:00,15.08798686,0.0001715,53.2362,199.7517,50.8541,121.9519,5.1225e-05,5.26e-06,0.0,0 STARLINK-3229,1 49751U 21115AD  22074.91667824  .00000526  00000-0  51225-4 0  9996,2 49751  53.2362 199.7517 0001715  50.8541 121.9519 15.08798686 17021,6918.007,95.44,541.058,538.685,0.0
49751.0,STARLINK-3229,PAYLOAD,2022-03-16 14:00:01,15.08821241,0.0001654,53.2363,196.7606,51.611,144.2811,0.0008253,0.00012864,0.0,0 STARLINK-3229,1 49751U 21115AD  22075.58334491  .00012864  00000-0  82530-3 0  9991,2 49751  53.2363 196.7606 0001654  51.6110 144.2811 15.08821241  3595,6917.938,95.439,540.947,538.659,0.0
49751.0,STARLINK-3229,PAYLOAD,2022-03-16 20:00:01,15.08830384,0.000167,53.2362,195.6393,46.4711,68.1095,0.0023343,0.00037048,0.0,0 STARLINK-3229,1 49751U 21115AD  22075.83334491  .00037048  00000-0  23343-2 0  9996,2 49751  53.2362 195.6393 0001670  46.4711  68.1095 15.08830384 17166,6917.91,95.438,540.93,538.619,0.0
49751.0,STARLINK-3229,PAYLOAD,2022-03-17 14:00:01,15.08842229,0.0001739,53.2368,192.2738,51.7845,178.9079,-0.0010583,-0.00017092,0.0,0 STARLINK-3229,1 49751U 21115AD  22076.58334491 -.00017092  00000-0 -10583-2 0  9990,2 49751  53.2368 192.2738 0001739  51.7845 178.9079 15.08842229 17287,6917.874,95.437,540.942,538.536,0.0
49751.0,STARLINK-3229,PAYLOAD,2022-03-17 22:00:00,15.08853937,0.0001719,53.2366,190.7779,50.6284,191.6475,-0.0012908,-0.0002078,0.0,0 STARLINK-3229,1 49751U 21115AD  22076.91667824 -.00020780  00000-0 -12908-2 0  9997,2 49751  53.2366 190.7779 0001719  50.6284 191.6475 15.08853937  3607,6917.8380000000025,95.437,540.8919999999998,538.514,0.0
49751.0,STARLINK-3229,PAYLOAD,2022-03-18 08:00:01,15.08851646,0.0001581,53.2371,188.9074,58.2766,288.5002,0.00089442,0.0001398,0.0,0 STARLINK-3229,1 49751U 21115AD  22077.33334491  .00013980  00000-0  89442-3 0  9995,2 49751  53.2371 188.9074 0001581  58.2766 288.5002 15.08851646 17394,6917.845,95.437,540.804,538.616,0.0
49751.0,STARLINK-3229,PAYLOAD,2022-03-18 14:00:01,15.08867282,0.0001691,53.2368,187.7871,51.4531,214.0324,-0.002742,-0.00043695,0.0,0 STARLINK-3229,1 49751U 21115AD  22077.58334491 -.00043695  00000-0 -27420-2 0  9997,2 49751  53.2368 187.7871 0001691  51.4531 214.0324 15.08867282  3613,6917.797,95.436,540.832,538.492,0.0
49751.0,STARLINK-3229,PAYLOAD,2022-03-18 22:00:00,15.08853476,0.0001589,53.2364,186.291,48.3355,228.7574,-0.0020866,-0.00033355,0.0,0 STARLINK-3229,1 49751U 21115AD  22077.91667824 -.00033355  00000-0 -20866-2 0  9992,2 49751  53.2364 186.2910 0001589  48.3355 228.7574 15.08853476 17481,6917.839,95.437,540.803,538.605,0.0
49751.0,STARLINK-3229,PAYLOAD,2022-03-19 14:00:01,15.0884457,0.0001652,53.2364,183.3004,50.1785,250.1057,-7.1536e-05,-1.426e-05,0.0,0 STARLINK-3229,1 49751U 21115AD  22078.58334491 -.00001426  00000-0 -71536-4 0  9993,2 49751  53.2364 183.3004 0001652  50.1785 250.1057 15.08844570 17583,6917.866,95.437,540.874,538.589,0.0
49751.0,STARLINK-3229,PAYLOAD,2022-03-19 22:00:01,15.08874914,0.0001635,53.2359,181.8041,50.2444,261.6956,-0.0048227,-0.00076301,0.0,0 STARLINK-3229,1 49751U 21115AD  22078.91668981 -.00076301  00000-0 -48227-2 0  9997,2 49751  53.2359 181.8041 0001635  50.2444 261.6956 15.08874914  3614,6917.774,95.435,540.77,538.508,0.0
49751.0,STARLINK-3229,PAYLOAD,2022-03-20 14:00:01,15.08829002,0.0001764,53.2358,178.8136,52.551,282.5092,6.6531e-05,7.71e-06,0.0,0 STARLINK-3229,1 49751U 21115AD  22079.58334491  .00000771  00000-0  66531-4 0  9993,2 49751  53.2358 178.8136 0001764  52.5510 282.5092 15.08829002  3583,6917.9140000000025,95.438,540.999,538.559,0.0
49751.0,STARLINK-3229,PAYLOAD,2022-03-20 22:00:01,15.08861186,0.0001703,53.2353,177.3171,51.5621,295.1489,-0.0017314,-0.00027753,0.0,0 STARLINK-3229,1 49751U 21115AD  22079.91668981 -.00027753  00000-0 -17314-2 0  9998,2 49751  53.2353 177.3171 0001703  51.5621 295.1489 15.08861186 17782,6917.816,95.436,540.859,538.503,0.0
49751.0,STARLINK-3229,PAYLOAD,2022-03-21 14:00:01,15.08865736,0.0001771999999999,53.2353,174.3266,50.4983,319.3613,-0.0022287,-0.00035608,0.0,0 STARLINK-3229,1 49751U 21115AD  22080.58334491 -.00035608  00000-0 -22287-2 0  9992,2 49751  53.2353 174.3266 0001772  50.4983 319.3613 15.08865736 17883,6917.802,95.436,540.893,538.441,0.0
49751.0,STARLINK-3229,PAYLOAD,2022-03-21 22:00:00,15.08865386,0.000162,53.235,172.8299,47.3719,334.0919,-0.0047252,-0.00074761,0.0,0 STARLINK-3229,1 49751U 21115AD  22080.91667824 -.00074761  00000-0 -47252-2 0  9990,2 49751  53.2350 172.8299 0001620  47.3719 334.0919 15.08865386  3602,6917.803000000001,95.436,540.788,538.547,0.0
49751.0,STARLINK-3229,PAYLOAD,2022-03-22 14:00:01,15.08815677,0.0001718,53.2352,169.8394,45.7338,358.8972,0.0008513,0.00013277,0.0,0 STARLINK-3229,1 49751U 21115AD  22081.58334491  .00013277  00000-0  85130-3 0  9996,2 49751  53.2352 169.8394 0001718  45.7338 358.8972 15.08815677 18037,6917.955,95.439,541.008,538.631,0.0
49751.0,STARLINK-3229,PAYLOAD,2022-03-22 22:00:01,15.088464800000002,0.0001638,53.2351,168.3426,45.6153,10.6493,-0.0014924,-0.00023965,0.0,0 STARLINK-3229,1 49751U 21115AD  22081.91668981 -.00023965  00000-0 -14924-2 0  9996,2 49751  53.2351 168.3426 0001638  45.6153  10.6493 15.08846480  3605,6917.861,95.437,540.859,538.592,0.0
49751.0,STARLINK-3229,PAYLOAD,2022-03-23 14:00:01,15.08841038,0.0001813,53.2331,165.3522,45.2694,34.1216,0.00081764,0.00012749,0.0,0 STARLINK-3229,1 49751U 21115AD  22082.58334491  .00012749  00000-0  81764-3 0  9999,2 49751  53.2331 165.3522 0001813  45.2694  34.1216 15.08841038  3617,6917.877,95.437,540.996,538.488,0.0
